2025-292G               
1 66999U 25292G   26003.48074367  .00011863  00000+0  83303-3 0  9997
2 66999  97.6555  80.8482 0015265 201.2116 158.8479 15.05198832  3669
2025-292H               
1 67000U 25292H   26002.94852582  .00013472  00000+0  94388-3 0  9997
2 67000  97.6570  80.3252 0015125 203.2338 156.8206 15.05252110  3456
2025-292J               
1 67001U 25292J   26003.42367969  .00012870  00000+0  91726-3 0  9996
2 67001  97.6536  80.7663 0015610 192.4418 167.6425 15.04615802  3651
ZK-1A R/B               
1 67002U 25292K   26003.10973683  .00215139  14953-4  92026-3 0  9992
2 67002  97.7182  82.7040 0194943 286.8130  71.1824 15.61973896  3720
STARLINK-35660          
1 67003U 25293A   26003.50002314 -.00061159  00000+0 -99876-3 0  9998
2 67003  69.9996 261.8924 0003327 270.2649 191.4834 15.52526549  3651
STARLINK-35913          
1 67004U 25293B   26003.50002314 -.00069513  00000+0 -11366-2 0  9998
2 67004  69.9997 261.8902 0003169 269.0376 194.6253 15.52532031  3659
STARLINK-36148          
1 67005U 25293C   26003.50002314 -.00072834  00000+0 -11912-2 0  9996
2 67005  69.9997 261.8880 0003395 269.4939 196.0798 15.52537072  3655
STARLINK-36156          
1 67006U 25293D   26003.50002314 -.00056252  00000+0 -91796-3 0  9992
2 67006  69.9997 261.8833 0003087 269.3577 200.0569 15.52524090  3657
STARLINK-36123          
1 67007U 25293E   26003.50002314  .00177046  00000+0  28122-2 0  9998
2 67007  69.9995 261.8862 0002874 268.1431 199.3639 15.52566878  3655
STARLINK-36163          
1 67008U 25293F   26003.50002314 -.00042928  00000+0 -69891-3 0  9990
2 67008  69.9997 261.8810 0002872 269.3692 201.9605 15.52517254  3658
STARLINK-36118          
1 67009U 25293G   26003.50002314 -.00056795  00000+0 -92690-3 0  9991
2 67009  69.9997 261.8785 0003265 265.7195 207.5294 15.52523366  3595
STARLINK-36189          
1 67010U 25293H   26003.50002314 -.00036868  00000+0 -59947-3 0  9990
2 67010  69.9996 261.8743 0003053 267.3709 209.7119 15.52513407  3656
