CCSDS_OMM_VERS = 2.0
CREATION_DATE  = 
ORIGINATOR     = 

OBJECT_NAME    = 2025-292G
OBJECT_ID      = 2025-292G
CENTER_NAME    = EARTH
REF_FRAME      = TEME
TIME_SYSTEM    = UTC
MEAN_ELEMENT_THEORY = SGP/SGP4

EPOCH          = 2026-01-03T11:32:16.253088
MEAN_MOTION    = 15.05198832
ECCENTRICITY   = .0015265
INCLINATION    = 97.6555
RA_OF_ASC_NODE = 80.8482
ARG_OF_PERICENTER = 201.2116
MEAN_ANOMALY   = 158.8479

EPHEMERIS_TYPE = 0
CLASSIFICATION_TYPE = U
NORAD_CAT_ID   = 66999
ELEMENT_SET_NO = 999
REV_AT_EPOCH   = 366
BSTAR          = .83303E-3
MEAN_MOTION_DOT = .11863E-3
MEAN_MOTION_DDOT = 0

CCSDS_OMM_VERS = 2.0
CREATION_DATE  = 
ORIGINATOR     = 

OBJECT_NAME    = 2025-292H
OBJECT_ID      = 2025-292H
CENTER_NAME    = EARTH
REF_FRAME      = TEME
TIME_SYSTEM    = UTC
MEAN_ELEMENT_THEORY = SGP/SGP4

EPOCH          = 2026-01-02T22:45:52.630848
MEAN_MOTION    = 15.05252110
ECCENTRICITY   = .00151252
INCLINATION    = 97.6570
RA_OF_ASC_NODE = 80.3252
ARG_OF_PERICENTER = 203.2338
MEAN_ANOMALY   = 156.8206

EPHEMERIS_TYPE = 0
CLASSIFICATION_TYPE = U
NORAD_CAT_ID   = 67000
ELEMENT_SET_NO = 999
REV_AT_EPOCH   = 345
BSTAR          = .94388116E-3
MEAN_MOTION_DOT = .13472E-3
MEAN_MOTION_DDOT = 0

CCSDS_OMM_VERS = 2.0
CREATION_DATE  = 
ORIGINATOR     = 

OBJECT_NAME    = 2025-292J
OBJECT_ID      = 2025-292J
CENTER_NAME    = EARTH
REF_FRAME      = TEME
TIME_SYSTEM    = UTC
MEAN_ELEMENT_THEORY = SGP/SGP4

EPOCH          = 2026-01-03T10:10:05.925216
MEAN_MOTION    = 15.04615802
ECCENTRICITY   = .001561
INCLINATION    = 97.6536
RA_OF_ASC_NODE = 80.7663
ARG_OF_PERICENTER = 192.4418
MEAN_ANOMALY   = 167.6425

EPHEMERIS_TYPE = 0
CLASSIFICATION_TYPE = U
NORAD_CAT_ID   = 67001
ELEMENT_SET_NO = 999
REV_AT_EPOCH   = 365
BSTAR          = .91726E-3
MEAN_MOTION_DOT = .1287E-3
MEAN_MOTION_DDOT = 0

CCSDS_OMM_VERS = 2.0
CREATION_DATE  = 
ORIGINATOR     = 

OBJECT_NAME    = ZK-1A R/B
OBJECT_ID      = 2025-292K
CENTER_NAME    = EARTH
REF_FRAME      = TEME
TIME_SYSTEM    = UTC
MEAN_ELEMENT_THEORY = SGP/SGP4

EPOCH          = 2026-01-03T02:38:01.262112
MEAN_MOTION    = 15.61973896
ECCENTRICITY   = .01949433
INCLINATION    = 97.7182
RA_OF_ASC_NODE = 82.7040
ARG_OF_PERICENTER = 286.8130
MEAN_ANOMALY   = 71.1824

EPHEMERIS_TYPE = 0
CLASSIFICATION_TYPE = U
NORAD_CAT_ID   = 67002
ELEMENT_SET_NO = 999
REV_AT_EPOCH   = 372
BSTAR          = .92026105E-3
MEAN_MOTION_DOT = .215139E-2
MEAN_MOTION_DDOT = .14953345E-4

CCSDS_OMM_VERS = 2.0
CREATION_DATE  = 
ORIGINATOR     = 

OBJECT_NAME    = STARLINK-35660
OBJECT_ID      = 2025-293A
CENTER_NAME    = EARTH
REF_FRAME      = TEME
TIME_SYSTEM    = UTC
MEAN_ELEMENT_THEORY = SGP/SGP4

EPOCH          = 2026-01-03T12:00:01.999296
MEAN_MOTION    = 15.52526549
ECCENTRICITY   = .0003327
INCLINATION    = 69.9996
RA_OF_ASC_NODE = 261.8924
ARG_OF_PERICENTER = 270.2649
MEAN_ANOMALY   = 191.4834

EPHEMERIS_TYPE = 0
CLASSIFICATION_TYPE = U
NORAD_CAT_ID   = 67003
ELEMENT_SET_NO = 999
REV_AT_EPOCH   = 365
BSTAR          = -.99876E-3
MEAN_MOTION_DOT = -.61159E-3
MEAN_MOTION_DDOT = 0

CCSDS_OMM_VERS = 2.0
CREATION_DATE  = 
ORIGINATOR     = 

OBJECT_NAME    = STARLINK-35913
OBJECT_ID      = 2025-293B
CENTER_NAME    = EARTH
REF_FRAME      = TEME
TIME_SYSTEM    = UTC
MEAN_ELEMENT_THEORY = SGP/SGP4

EPOCH          = 2026-01-03T12:00:01.999296
MEAN_MOTION    = 15.52532031
ECCENTRICITY   = .0003169
INCLINATION    = 69.9997
RA_OF_ASC_NODE = 261.8902
ARG_OF_PERICENTER = 269.0376
MEAN_ANOMALY   = 194.6253

EPHEMERIS_TYPE = 0
CLASSIFICATION_TYPE = U
NORAD_CAT_ID   = 67004
ELEMENT_SET_NO = 999
REV_AT_EPOCH   = 365
BSTAR          = -.11366E-2
MEAN_MOTION_DOT = -.69513E-3
MEAN_MOTION_DDOT = 0

CCSDS_OMM_VERS = 2.0
CREATION_DATE  = 
ORIGINATOR     = 

OBJECT_NAME    = STARLINK-36148
OBJECT_ID      = 2025-293C
CENTER_NAME    = EARTH
REF_FRAME      = TEME
TIME_SYSTEM    = UTC
MEAN_ELEMENT_THEORY = SGP/SGP4

EPOCH          = 2026-01-03T12:00:01.999296
MEAN_MOTION    = 15.52537072
ECCENTRICITY   = .0003395
INCLINATION    = 69.9997
RA_OF_ASC_NODE = 261.8880
ARG_OF_PERICENTER = 269.4939
MEAN_ANOMALY   = 196.0798

EPHEMERIS_TYPE = 0
CLASSIFICATION_TYPE = U
NORAD_CAT_ID   = 67005
ELEMENT_SET_NO = 999
REV_AT_EPOCH   = 365
BSTAR          = -.11912E-2
MEAN_MOTION_DOT = -.72834E-3
MEAN_MOTION_DDOT = 0

CCSDS_OMM_VERS = 2.0
CREATION_DATE  = 
ORIGINATOR     = 

OBJECT_NAME    = STARLINK-36156
OBJECT_ID      = 2025-293D
CENTER_NAME    = EARTH
REF_FRAME      = TEME
TIME_SYSTEM    = UTC
MEAN_ELEMENT_THEORY = SGP/SGP4

EPOCH          = 2026-01-03T12:00:01.999296
MEAN_MOTION    = 15.52524090
ECCENTRICITY   = .0003087
INCLINATION    = 69.9997
RA_OF_ASC_NODE = 261.8833
ARG_OF_PERICENTER = 269.3577
MEAN_ANOMALY   = 200.0569

EPHEMERIS_TYPE = 0
CLASSIFICATION_TYPE = U
NORAD_CAT_ID   = 67006
ELEMENT_SET_NO = 999
REV_AT_EPOCH   = 365
BSTAR          = -.91796E-3
MEAN_MOTION_DOT = -.56252E-3
MEAN_MOTION_DDOT = 0

CCSDS_OMM_VERS = 2.0
CREATION_DATE  = 
ORIGINATOR     = 

OBJECT_NAME    = STARLINK-36123
OBJECT_ID      = 2025-293E
CENTER_NAME    = EARTH
REF_FRAME      = TEME
TIME_SYSTEM    = UTC
MEAN_ELEMENT_THEORY = SGP/SGP4

EPOCH          = 2026-01-03T12:00:01.999296
MEAN_MOTION    = 15.52566878
ECCENTRICITY   = .0002874
INCLINATION    = 69.9995
RA_OF_ASC_NODE = 261.8862
ARG_OF_PERICENTER = 268.1431
MEAN_ANOMALY   = 199.3639

EPHEMERIS_TYPE = 0
CLASSIFICATION_TYPE = U
NORAD_CAT_ID   = 67007
ELEMENT_SET_NO = 999
REV_AT_EPOCH   = 365
BSTAR          = .28122E-2
MEAN_MOTION_DOT = .177046E-2
MEAN_MOTION_DDOT = 0

CCSDS_OMM_VERS = 2.0
CREATION_DATE  = 
ORIGINATOR     = 

OBJECT_NAME    = STARLINK-36163
OBJECT_ID      = 2025-293F
CENTER_NAME    = EARTH
REF_FRAME      = TEME
TIME_SYSTEM    = UTC
MEAN_ELEMENT_THEORY = SGP/SGP4

EPOCH          = 2026-01-03T12:00:01.999296
MEAN_MOTION    = 15.52517254
ECCENTRICITY   = .0002872
INCLINATION    = 69.9997
RA_OF_ASC_NODE = 261.8810
ARG_OF_PERICENTER = 269.3692
MEAN_ANOMALY   = 201.9605

EPHEMERIS_TYPE = 0
CLASSIFICATION_TYPE = U
NORAD_CAT_ID   = 67008
ELEMENT_SET_NO = 999
REV_AT_EPOCH   = 365
BSTAR          = -.69891E-3
MEAN_MOTION_DOT = -.42928E-3
MEAN_MOTION_DDOT = 0

CCSDS_OMM_VERS = 2.0
CREATION_DATE  = 
ORIGINATOR     = 

OBJECT_NAME    = STARLINK-36118
OBJECT_ID      = 2025-293G
CENTER_NAME    = EARTH
REF_FRAME      = TEME
TIME_SYSTEM    = UTC
MEAN_ELEMENT_THEORY = SGP/SGP4

EPOCH          = 2026-01-03T12:00:01.999296
MEAN_MOTION    = 15.52523366
ECCENTRICITY   = .0003265
INCLINATION    = 69.9997
RA_OF_ASC_NODE = 261.8785
ARG_OF_PERICENTER = 265.7195
MEAN_ANOMALY   = 207.5294

EPHEMERIS_TYPE = 0
CLASSIFICATION_TYPE = U
NORAD_CAT_ID   = 67009
ELEMENT_SET_NO = 999
REV_AT_EPOCH   = 359
BSTAR          = -.9269E-3
MEAN_MOTION_DOT = -.56795E-3
MEAN_MOTION_DDOT = 0

CCSDS_OMM_VERS = 2.0
CREATION_DATE  = 
ORIGINATOR     = 

OBJECT_NAME    = STARLINK-36189
OBJECT_ID      = 2025-293H
CENTER_NAME    = EARTH
REF_FRAME      = TEME
TIME_SYSTEM    = UTC
MEAN_ELEMENT_THEORY = SGP/SGP4

EPOCH          = 2026-01-03T12:00:01.999296
MEAN_MOTION    = 15.52513407
ECCENTRICITY   = .0003053
INCLINATION    = 69.9996
RA_OF_ASC_NODE = 261.8743
ARG_OF_PERICENTER = 267.3709
MEAN_ANOMALY   = 209.7119

EPHEMERIS_TYPE = 0
CLASSIFICATION_TYPE = U
NORAD_CAT_ID   = 67010
ELEMENT_SET_NO = 999
REV_AT_EPOCH   = 365
BSTAR          = -.59947E-3
MEAN_MOTION_DOT = -.36868E-3
MEAN_MOTION_DDOT = 0

